CTC2_L_00543001-01
1 13206U 22654HP  26070.40850694  .00000000  00000+0  00000-0 0  9991
2 13206  97.9000   0.0000 0000000   0.0000   0.0000 14.75047655    14
CTC2_L_00543002-01
1 13207U 25251ED  26070.40850694  .00000000  00000+0  00000-0 0  9998
2 13207  97.9000  12.0000 0000000   0.0000  48.0000 14.75047655    10
CTC2_L_00543003-01
1 13208U 24374WI  26070.40850694  .00000000  00000+0  00000-0 0  9994
2 13208  97.9000  24.0000 0000000   0.0000  96.0000 14.75047655    17
CTC2_L_00543004-01
1 13209U 22216VW  26070.40850694  .00000000  00000+0  00000-0 0  9998
2 13209  97.9000  36.0000 0000000   0.0000 144.0000 14.75047655    15
CTC2_L_00543005-01
1 13210U 26208DT  26070.40850694  .00000000  00000+0  00000-0 0  9995
2 13210  97.9000  48.0000 0000000   0.0000 192.0000 14.75047655    13
CTC2_L_00543006-01
1 13211U 25115FZ  26070.40850694  .00000000  00000+0  00000-0 0  9992
2 13211  97.9000  60.0000 0000000   0.0000 240.0000 14.75047655    12
CTC2_L_00543007-01
1 13212U 26975YA  26070.40850694  .00000000  00000+0  00000-0 0  9998
2 13212  97.9000  72.0000 0000000   0.0000 288.0000 14.75047655    18
CTC2_L_00543008-01
1 13213U 23328ZN  26070.40850694  .00000000  00000+0  00000-0 0  9998
2 13213  97.9000  84.0000 0000000   0.0000 336.0000 14.75047655    16
CTC2_L_00543009-01
1 13214U 23725YM  26070.40850694  .00000000  00000+0  00000-0 0  9990
2 13214  97.9000  96.0000 0000000   0.0000  24.0000 14.75047655    14
CTC2_L_00543010-01
1 13215U 23108IJ  26070.40850694  .00000000  00000+0  00000-0 0  9996
2 13215  97.9000 108.0000 0000000   0.0000  72.0000 14.75047655    12
CTC2_L_00543011-01
1 13216U 25048OF  26070.40850694  .00000000  00000+0  00000-0 0  9992
2 13216  97.9000 120.0000 0000000   0.0000 120.0000 14.75047655    11
CTC2_L_00543012-01
1 13217U 25074XL  26070.40850694  .00000000  00000+0  00000-0 0  9992
2 13217  97.9000 132.0000 0000000   0.0000 168.0000 14.75047655    17
CTC2_L_00543013-01
1 13218U 22626GW  26070.40850694  .00000000  00000+0  00000-0 0  9993
2 13218  97.9000 144.0000 0000000   0.0000 216.0000 14.75047655    15
CTC2_L_00543014-01
1 13219U 25268NZ  26070.40850694  .00000000  00000+0  00000-0 0  9999
2 13219  97.9000 156.0000 0000000   0.0000 264.0000 14.75047655    12
CTC2_L_00543015-01
1 13220U 24894SE  26070.40850694  .00000000  00000+0  00000-0 0  9995
2 13220  97.9000 168.0000 0000000   0.0000 312.0000 14.75047655    11
CTC2_L_00543016-01
1 13221U 22632VI  26070.40850694  .00000000  00000+0  00000-0 0  9994
2 13221  97.9000 180.0000 0000000   0.0000   0.0000 14.75047655    10
CTC2_L_00543017-01
1 13222U 23645VJ  26070.40850694  .00000000  00000+0  00000-0 0  9990
2 13222  97.9000 192.0000 0000000   0.0000  48.0000 14.75047655    16
CTC2_L_00543018-01
1 13223U 25857WN  26070.40850694  .00000000  00000+0  00000-0 0  9998
2 13223  97.9000 204.0000 0000000   0.0000  96.0000 14.75047655    14
CTC2_L_00543019-01
1 13224U 25486SG  26070.40850694  .00000000  00000+0  00000-0 0  9997
2 13224  97.9000 216.0000 0000000   0.0000 144.0000 14.75047655    12
CTC2_L_00543020-01
1 13225U 23330UM  26070.40850694  .00000000  00000+0  00000-0 0  9994
2 13225  97.9000 228.0000 0000000   0.0000 192.0000 14.75047655    19
CTC2_L_00543021-01
1 13226U 24635MH  26070.40850694  .00000000  00000+0  00000-0 0  9994
2 13226  97.9000 240.0000 0000000   0.0000 240.0000 14.75047655    18
CTC2_L_00543022-01
1 13227U 24771MQ  26070.40850694  .00000000  00000+0  00000-0 0  9996
2 13227  97.9000 252.0000 0000000   0.0000 288.0000 14.75047655    14
CTC2_L_00543023-01
1 13228U 24395VI  26070.40850694  .00000000  00000+0  00000-0 0  9999
2 13228  97.9000 264.0000 0000000   0.0000 336.0000 14.75047655    12
CTC2_L_00543024-01
1 13229U 23460TQ  26070.40850694  .00000000  00000+0  00000-0 0  9992
2 13229  97.9000 276.0000 0000000   0.0000  24.0000 14.75047655    10
CTC2_L_00543025-01
1 13230U 23020MK  26070.40850694  .00000000  00000+0  00000-0 0  9996
2 13230  97.9000 288.0000 0000000   0.0000  72.0000 14.75047655    18
CTC2_L_00543026-01
1 13231U 23196SJ  26070.40850694  .00000000  00000+0  00000-0 0  9991
2 13231  97.9000 300.0000 0000000   0.0000 120.0000 14.75047655    18
CTC2_L_00543027-01
1 13232U 24168J   26070.40850694  .00000000  00000+0  00000-0 0  9992
2 13232  97.9000 312.0000 0000000   0.0000 168.0000 14.75047655    14
CTC2_L_00543028-01
1 13233U 25031OL  26070.40850694  .00000000  00000+0  00000-0 0  9993
2 13233  97.9000 324.0000 0000000   0.0000 216.0000 14.75047655    12
CTC2_L_00543029-01
1 13234U 24923MU  26070.40850694  .00000000  00000+0  00000-0 0  9993
2 13234  97.9000 336.0000 0000000   0.0000 264.0000 14.75047655    19
CTC2_L_00543030-01
1 13235U 23139ZT  26070.40850694  .00000000  00000+0  00000-0 0  9992
2 13235  97.9000 348.0000 0000000   0.0000 312.0000 14.75047655    17
